#dP2023  7 27  6  0  0.00000000      96 __u+U ITR00 EXT  IAC
## 2272 367200.00000000   900.00000000 60152 0.2500000000000
+  119   C06C07C08C09C10C11C12C13C14C16C19C20C21C22C23C24C25
+        C26C27C28C29C30C32C33C34C35C36C37C38C39C40C41C42C43
+        C44C45C46E02E03E04E05E07E08E09E10E11E12E13E14E15E18
+        E19E21E24E25E26E27E30E31E33E34E36G01G02G03G04G05G06
+        G07G08G09G10G11G12G13G14G15G16G17G18G19G20G21G22G23
+        G24G25G26G27G28G29G30G31G32J02J03J04R01R02R03R04R05
+        R07R08R09R11R12R13R14R15R16R17R18R19R20R21R22R24R25
++         9 10  9  8 10  9  8 10  9  9  8  8  7  8  9  7  9
++         7  8 10  9  9  8  8  8  7  9  9  8 10 11  8  8  7
++         6  8 10  7  6  8  8  7  6  7  7  7  7  7  7  6  7
++         6  6  6  7  7  6  7  6  6  7  8  7  5  7  7  8  7
++         7  8  6  7  6  6  6  7  7  9  7  7  6  6  6  7  8
++         6  7  7  8  7  9  7  7  7 10  9  9  8  9  8  7  9
++         7  7  7  9  8  8  7  7  9  8  9  9  8  7  6  7  7
%c M  cc GPS ccc cccc cccc cccc cccc ccccc ccccc ccccc ccccc
%c cc cc ccc ccc cccc cccc cccc cccc ccccc ccccc ccccc ccccc
%f  0.0000000  0.000000000  0.00000000000  0.000000000000000
%f  0.0000000  0.000000000  0.00000000000  0.000000000000000
%i    0    0    0    0      0      0      0      0         0
%i    0    0    0    0      0      0      0      0         0
/* IAC                                ULTRA-RAPID PREDICTION
/* S/V CLOCKS ARE ALIGNED TO GNSS TIME                      
/* G:C1WC2W R:C1PC2P E:C1XC5X C:C2IC6I J:C1CC2S             
/* PCV:IGS20_2247 OL/AL:FES2004  NONE     YN ORB:CoN CLK:CoN
*  2023 07 27  9  0  0.00000000
PC06  -8944.050813  40215.575879   9674.601332    710.350873
PC07  -5444.452743  27247.746956 -31599.748990    163.171616
PC08 -19229.282609  27252.617040  25634.126479    413.257908
PC09  -4219.580962  42262.337086    383.244847    366.456185
PC10   1342.791264  28902.060334 -30208.946557   -126.917904
PC11 -12762.443114  11488.852763 -21928.121271    747.726242
PC12 -15779.554362  -9896.398839 -20752.533366    821.183146
PC13 -11712.577845  27903.844806  29361.321589    323.209563
PC14 -21200.066236   5442.851291  17357.212926    125.809595
PC16  -9649.884277  39674.042488  11369.241664    -10.554942
PC19  12754.989621 -11477.466429 -21982.664664   -947.495037
PC20  25423.689980    290.649808 -11457.496044    406.139269
PC21 -23757.556491 -12927.476226  -6920.289929   -940.393102
PC22  -7946.134039 -17303.237773 -20418.131272   -378.006030
PC23  -3938.911173  20891.824040 -18062.890451   -927.507364
PC24 -23184.808517   7297.767530  13686.989829    218.106524
PC25 -18199.760060  20769.203752  -3951.902420    176.634610
PC26 -14535.780734  -8398.659658  22276.781812   -154.615497
PC27  14491.738655  18095.573091  15514.766727    175.613260
PC28   5586.978680  27333.681149    439.632468    131.076414
PC29   7312.131608 -20887.784315  16993.309272    152.787171
PC30  16054.382029  -1286.946000  22779.359424     -2.710029
PC32  23768.421367  12800.410913   7046.027313   -536.013633
PC33 -12842.487883  11516.481961  21939.292322   -922.609873
PC34 -15783.649638   2911.563810 -22842.881645    223.850828
PC35  -6364.901159 -27153.366499   -100.604336    580.196604
PC36  19127.111921 -20069.806259   3240.439526   -307.652032
PC37  13604.123836   9511.850802 -22415.290949   -798.312506
PC38 -24763.064819  28697.320570  18296.587904     94.248920
PC39 -11201.424740  36815.203851  17546.533286     -4.021381
PC40  -9879.054303  21111.885190 -35099.442497    -30.821882
PC41   7168.271884  17276.384808  20753.905719   -896.515745
PC42 -25962.596983  -1228.391038  10235.507248   -597.968593
PC43  -7986.708507  20234.804567 -17500.086038     32.559806
PC44 -15222.448263 -17639.913171 -15355.458958    181.399690
PC45   3523.247777 -20655.250060  18448.225428     -6.805008
PC46  23385.371731  -8550.693319 -12632.390210    -71.985750
PE02   5171.140013  16082.955888 -24303.736084     52.146385
PE03  12178.285820  25267.818762   9429.267949    -40.036167
PE04 -22295.101097 -17306.620989   8936.172259   -175.873599
PE05  -5174.945815  18544.101219  22485.500747      3.414002
PE07  19565.933966   -674.074725 -22191.990815    -62.956061
PE08  22185.605061  17592.908669  -8604.016261   -120.856606
PE09 -19557.806747    437.015833  22221.538298    -99.088844
PE10 -16922.433436    692.095700 -24288.198405   -551.578490
PE11 -18302.807779  12249.343935 -19798.016817   2585.907677
PE12 -13219.114391  -9973.146039 -24544.371301   -634.310850
PE13  18228.326341 -11553.633187  20253.588115    -19.355984
PE14   9873.215576 -13686.903459  18943.223971    294.001352
PE15  12961.248671  10336.667974  24519.288882    -40.333703
PE18 -19179.628933   6818.110957 -23524.010782    343.614940
PE19 -10098.749237 -25242.188993 -11700.179058  -1984.675377
PE21  15798.014560 -15963.699196  19284.930784   -543.121523
PE24 -28878.087021   6073.179883  -2202.471349   -232.305344
PE25 -16154.013769  15862.357904 -19057.452717   -608.928880
PE26  12425.619784 -26647.287774   3452.265902    175.082121
PE27  28723.740635  -6583.076859   2828.532946   -109.458749
PE30  24264.016444   6992.895268 -15455.417832   -369.053850
PE31 -24581.178308  -6586.286397  15131.844731     -1.299098
PE33    283.105602 -26162.825144 -13859.248604     -2.178364
PE34    233.272908  25860.585202  14375.119295    -58.288724
PE36 -12763.791654  26375.831754  -4206.577163    -92.056046
PG01  14233.158584 -20821.514893   7398.732415    171.081179
PG02  15559.020362 -16334.922074  14391.470761   -571.917730
PG03  17950.115789 -12607.077771 -15034.501105   -214.868318
PG04   7407.348044 -14565.229901 -20904.517437    107.681606
PG05 -26167.657023   4879.802285     95.288173   -136.476170
PG06  -8706.549067 -14226.541805 -20587.269224    573.711320
PG07   4264.059001 -24926.938203   7724.375158    113.184850
PG08  15855.131733  -3897.456855  20946.618622   -134.262709
PG09  -1979.711717 -20811.482480 -16432.978991   -101.996789
PG10  13340.204748  11728.959907  20026.627043    -46.826565
PG11 -16316.135725    702.380732 -20926.885351   -293.857561
PG12 -21308.256732  10057.019510 -12454.082297   -405.669449
PG13 -17947.812037  -5600.709853  18659.739896    552.450702
PG14  -9689.801065 -13819.269520  20563.384566    135.254232
PG15 -15011.424674   6578.696698  20471.628044     61.900107
PG16  26556.412434   1305.547065  -3709.622416   -475.868447
PG17 -13295.685484 -22808.132604   2718.602126    721.743657
PG18  -3231.907982  24382.833137   9800.259252   -360.752701
PG19 -16951.889369 -19897.764897  -5819.485870    349.459712
PG20 -24388.762294     -6.328184 -10249.234700    420.465429
PG21  16116.832932 -13195.119614  16469.761928    151.630121
PG22  18055.931674  17727.387057  -7874.073677    518.628711
PG23   -598.827630  15108.740904  21826.954088     47.890523
PG24 -14686.334491  18255.401853  11732.014553   -270.979600
PG25  -8708.897237  15606.539664 -19878.615295    458.611693
PG26  21958.226590   6054.717264 -14058.543566    235.134789
PG27  20004.141255   8387.938167  15347.698368    -10.999122
PG28   8527.623902  16039.010620 -19398.676266     80.604903
PG29   -517.436780  20272.802258 -17150.098031   -606.498927
PG30  -3157.524217 -21529.574809  15174.279049   -501.202423
PG31  14734.286792   4801.805404 -21761.287557   -220.791529
PG32  16646.864933  20834.169425   -206.696805   -529.232694
PJ02 -34740.141586  15910.324513 -13216.837445     -1.820071
PJ03 -21072.920537  30960.774584 -14614.033405     -0.395245
PJ04 -25962.697969  27976.870606  24073.350802     97.665384
PR01   6564.161415  -8939.769346 -22971.173357     62.236618
PR02 -11155.580497 -15395.958993 -16927.891420    -22.579487
PR03 -22021.128883 -12763.921550  -1078.810845     82.211879
PR04 -20345.070396  -3459.379344  15010.658904    196.367577
PR05  -7769.168145   7865.896609  22995.214200    116.403763
PR07  22242.759539  12537.178403    364.693083     61.089814
PR08  20348.500531   3215.313149 -15006.946894    -71.831304
PR09  -1280.595420  13536.125206 -21576.280115    133.419650
PR11  22156.820037  -8659.580061  -9166.007516   -115.337167
PR12  17145.905871 -16077.819687   9954.391550     29.531841
PR13   3469.286941 -14079.615256  20977.581690    -37.521565
PR14 -14598.841528  -2817.866091  20751.268233     25.006517
PR15 -22439.188839   9185.911879   7962.935055     87.515887
PR16 -17307.101367  16096.795930  -9625.302673     17.100888
PR17  -8981.296444 -14041.953951 -19324.220868      3.468736
PR18 -10336.259626   3836.545427 -22996.205315     93.681481
PR19  -7573.643600  18415.692763 -15941.515064   -241.297230
PR20   1037.129987  25201.381114   3926.537187    -97.271288
PR21   9106.598849  12890.677966  20021.949152    -25.803183
PR22  10825.415879  -4505.599760  22674.475908    102.495936
PR24  -2301.754871 -25016.272805  -4480.932635    -18.154847
PR25   8593.423549  14440.133204  19182.615307     45.487154
EOF
